CZ-2D R/B               
1 28738U 05024B   26122.94798479  .00050423  00000+0  51116-3 0  9999
2 28738  97.3523 140.2755 0005815 152.9488 207.2076 15.65083143148259
ALOS (DAICHI)           
1 28931U 06002A   26122.89338219  .00001190  00000+0  20696-3 0  9993
2 28931  98.1297  78.6142 0002057  97.4330 262.7109 14.69956557 81440
H-2A R/B                
1 28932U 06002B   26122.89468757  .00008710  00000+0  42321-3 0  9999
2 28932  98.2513 274.6625 0052109  57.9856 302.6423 15.17510331102654
RESURS-DK 1             
1 29228U 06021A   26122.94989453  .00002572  00000+0  15129-3 0  9992
2 29228  69.9322  96.6354 0003927 333.5782  26.5184 15.13025412 95735
CZ-4B R/B               
1 29507U 06046C   26122.69157509  .00004685  00000+0  23418-3 0  9997
2 29507  97.5490 167.4426 0034503  81.1399 279.3738 15.17419381 68233
CZ-2C R/B               
1 31114U 07010B   26122.90207996  .00000118  00000+0  72867-4 0  9996
2 31114  98.4045 233.4800 0059902 135.8612 224.7369 14.20264612987413
COSMO-SKYMED 1          
1 31598U 07023A   26122.94975667  .00003693  00000+0  32707-3 0  9996
2 31598  97.8870 314.4295 0001853  93.2935 266.8498 14.96888567 23025
COSMOS 2428             
1 31792U 07029A   26122.90527818 -.00000215  00000+0 -89864-4 0  9991
2 31792  70.9394  89.5438 0008712 215.1668 144.8879 14.12943414971753
SL-16 R/B               
1 31793U 07029B   26122.93271645  .00000247  00000+0  15266-3 0  9996
2 31793  70.9768  58.3582 0002570 268.5188 155.1405 14.14849365973044
KORONAS-FOTON           
1 33504U 09003A   26122.81287466  .00014132  00000+0  30079-3 0  9994
2 33504  82.4319 219.5501 0009283 324.1448  35.9176 15.44770112954095
CZ-2C R/B               
1 37731U 11030B   26122.67225152  .00001031  00000+0  13568-3 0  9999
2 37731  97.8627  78.8940 0052489 173.0591   0.1312 14.81370490798088
H-2A R/B                
1 38341U 12025E   26122.92991082  .00003322  00000+0  30026-3 0  9995
2 38341  98.4805  94.3642 0045403 133.9331 226.5648 14.95477722756326
SHIJIAN-16 (SJ-16)      
1 39358U 13057A   26122.92733802  .00001870  00000+0  18453-3 0  9990
2 39358  74.9713  82.3940 0016518 335.3222  24.7174 14.92494577679591
SL-4 R/B                
1 39679U 14021B   26122.93992183  .00014888  00000+0  31485-3 0  9991
2 39679  51.6062  72.2539 0092326 301.4390  57.7592 15.40895338664632
ALOS-2                  
1 39766U 14029A   26122.96040832  .00001794  00000+0  24694-3 0  9990
2 39766  97.9214 220.7707 0001651  85.0677 275.0723 14.79486011644894
YAOGAN-29               
1 41038U 15069A   26122.97359181  .00000747  00000+0  98455-4 0  9995
2 41038  98.0060 151.5287 0002206 128.7641 231.3770 14.83048679563927
ASTRO-H (HITOMI)        
1 41337U 16012A   26122.96450460  .00003218  00000+0  18576-3 0  9998
2 41337  31.0008   6.2062 0009438 159.0337 201.0689 15.10319703560445
HXMT (HUIYAN)           
1 42758U 17034A   26122.93792873  .00005316  00000+0  26429-3 0  9992
2 42758  43.0143  74.9171 0032487 220.1259 139.7190 15.18061830490788
SAOCOM 1A               
1 43641U 18076A   26122.97147976  .00000860  00000+0  11451-3 0  9991
2 43641  97.8886 310.3760 0001600  87.0464 273.0932 14.82163033409406
H-2A R/B                
1 43682U 18084L   26122.90043552  .00018975  00000+0  42113-3 0  9998
2 43682  98.8641 351.9516 0023787 191.7164 168.3529 15.43496030414139
SAOCOM 1B               
1 46265U 20059A   26122.93524872  .00000761  00000+0  10209-3 0  9990
2 46265  97.8884 309.4334 0001563  83.2301 276.9090 14.82154421306786
CSS (TIANHE)            
1 48274U 21035A   26122.74284822  .00027302  00000+0  29254-3 0  9994
2 48274  41.4672 238.6202 0005746 318.5801  41.4603 15.63191589286060
COSMOS 2550             
1 48865U 21056A   26122.70481823 -.00000104  00000+0  26749-5 0  9999
2 48865  67.1410 237.4871 0008366 269.5068  90.5128 15.33828701271747
CZ-2C R/B               
1 52794U 22058K   26122.89621325  .00047554  00000+0  59501-3 0  9990
2 52794  50.1884  38.5804 0037546  73.5857 286.9237 15.58419239218570
CZ-2C R/B               
1 54039U 22132E   26122.93368981  .00050060  00000+0  47042-3 0  9991
2 54039  97.2929 128.1068 0013492 239.1504 120.8430 15.66888956198851
GSLV R/B                
1 54149U 22138AN  26122.60056757  .00002672  00000+0  22870-3 0  9996
2 54149  87.3800 148.2944 0019510 321.3539  38.6295 14.97057070191997
XRISM                   
1 57800U 23137A   26122.91212595  .00006147  00000+0  34271-3 0  9990
2 57800  31.0023 292.7860 0007598 227.7814 132.2180 15.12082836146009
ACS3                    
1 59588U 24077B   26122.73948169  .00048551  00000+0  37379-1 0  9997
2 59588  97.1803  51.7102 0053364 342.1148  17.8138 13.92009872101714
HTV-X1                  
1 66174U 25241A   26122.39524356  .00013891  00000+0  15433-3 0  9998
2 66174  51.6342 171.9506 0007326  16.4549 343.6682 15.63190788 29183
SZ-21 MODULE            
1 66515U 25246C   26122.35578709  .00043723  00000+0  31490-3 0  9997
2 66515  41.4736 231.9511 0003197   8.3344 351.7552 15.72755905 26512

ISS (ZARYA)             
1 25544U 98067A   26122.84497350  .00006801  00000+0  13115-3 0  9991
2 25544  51.6308 164.5377 0007264  16.4817 343.6406 15.49068051564723
POISK                   
1 36086U 09060A   26122.84497350  .00006801  00000+0  13115-3 0  9999
2 36086  51.6308 164.5377 0007264  16.4817 343.6406 15.49068051564546
CSS (TIANHE)            
1 48274U 21035A   26122.74284822  .00027302  00000+0  29254-3 0  9994
2 48274  41.4672 238.6202 0005746 318.5801  41.4603 15.63191589286060
ISS (NAUKA)             
1 49044U 21066A   26122.84497350  .00006801  00000+0  13115-3 0  9997
2 49044  51.6308 164.5377 0007264  16.4817 343.6406 15.49068051564588
FREGAT DEB              
1 49271U 11037PF  26122.40964041  .00009537  00000+0  14724-1 0  9998
2 49271  51.6390 139.4302 0936490 182.3416 177.2872 12.41195807219360
CSS (WENTIAN)           
1 53239U 22085A   26122.74284822  .00027302  00000+0  29254-3 0  9997
2 53239  41.4672 238.6202 0005746 318.5801  41.4603 15.63191589286258
CSS (MENGTIAN)          
1 54216U 22143A   26122.74284822  .00027302  00000+0  29254-3 0  9998
2 54216  41.4672 238.6202 0005746 318.5801  41.4603 15.63191589286052
TIANZHOU-9              
1 64786U 25149A   26122.74284822  .00027302  00000+0  29254-3 0  9990
2 64786  41.4672 238.6202 0005746 318.5801  41.4603 15.63191589286066
HRC MONOBLOCK CAMERA    
1 66052U 98067XR  26122.77859536  .00056550  00000+0  49779-3 0  9991
2 66052  51.6248 151.3235 0005068   5.1009 355.0038 15.68179661 30862
HTV-X1                  
1 66174U 25241A   26122.39524356  .00013891  00000+0  15433-3 0  9998
2 66174  51.6342 171.9506 0007326  16.4549 343.6682 15.63190788 29183
SZ-21 MODULE            
1 66515U 25246C   26122.35578709  .00043723  00000+0  31490-3 0  9997
2 66515  41.4736 231.9511 0003197   8.3344 351.7552 15.72755905 26512
SHENZHOU-22             
1 66645U 25272A   26122.74284822  .00027302  00000+0  29254-3 0  9993
2 66645  41.4672 238.6202 0005746 318.5801  41.4603 15.63191589286073
SOYUZ-MS 28             
1 66664U 25275A   26122.84497350  .00006801  00000+0  13115-3 0  9990
2 66664  51.6308 164.5377 0007264  16.4817 343.6406 15.49068051564822
DUPLEX                  
1 66906U 98067XS  26122.59551733  .00025708  00000+0  32292-3 0  9990
2 66906  51.6263 159.1195 0005556  10.7693 349.3418 15.59510616 23534
ISS OBJECT XT           
1 66907U 98067XT  26122.77397005  .01123821  71123-3  15646-2 0  9998
2 66907  51.6119 144.3888 0008696  28.3628 331.7856 16.05355962 23748
ISS OBJECT XU           
1 66908U 98067XU  26122.26068694  .01022220  56873-3  14599-2 0  9994
2 66908  51.6130 146.9584 0009435  25.5006 334.6470 16.04892583 23663
ISS OBJECT XW           
1 66910U 98067XW  26122.30283883  .00565977  14159-3  14534-2 0  9991
2 66910  51.6133 148.0125 0010558  23.2638 336.8845 15.94568404 23656
ISS OBJECT XY           
1 66912U 98067XY  26122.38157383  .00151034  00000+0  93454-3 0  9996
2 66912  51.6223 153.1429 0008262  20.7773 339.3561 15.76057128 23584
KNACKSAT-2              
1 67683U 98067XZ  26122.80756444  .00037310  00000+0  52540-3 0  9993
2 67683  51.6275 162.0389 0012718  29.5787 330.5921 15.56178419 13200
CORAL                   
1 67684U 98067YA  26122.79709681  .00103644  00000+0  10576-2 0  9999
2 67684  51.6246 159.7119 0016482  24.4957 335.6817 15.64092737 13238
GXIBA-1                 
1 67685U 98067YB  26122.13939669  .00044600  00000+0  60621-3 0  9992
2 67685  51.6282 165.0761 0014604  24.7575 335.4114 15.57019151 13100
UITMSAT-2               
1 67686U 98067YC  26122.79983733  .00058267  00000+0  73692-3 0  9992
2 67686  51.6269 161.2400 0011650  10.1504 349.9721 15.58869816 13211
HMU-SAT2                
1 67687U 98067YD  26122.40791199  .00044092  00000+0  60831-3 0  9996
2 67687  51.6284 163.8757 0010860   9.2478 350.8711 15.56679451 13068
LEOPARD                 
1 67688U 98067YE  26122.82055089  .00052088  00000+0  68045-3 0  9993
2 67688  51.6279 161.3805 0011290  10.1856 349.9363 15.58063137 13139
CREW DRAGON 12          
1 67796U 26031A   26122.84497350  .00006801  00000+0  13115-3 0  9998
2 67796  51.6308 164.5377 0007264  16.4817 343.6406 15.49068051564920
PROGRESS-MS 33          
1 68319U 26058A   26122.84497350  .00006801  00000+0  13115-3 0  9999
2 68319  51.6308 164.5377 0007264  16.4817 343.6406 15.49068051  6215
CYGNUS NG-24            
1 68689U 26079A   26122.84497350  .00006801  00000+0  13115-3 0  9992
2 68689  51.6308 164.5377 0007264  16.4817 343.6406 15.49068051  3403
PROGRESS-MS 34          
1 68837U 26093A   26122.84497350  .00006801  00000+0  13115-3 0  9993
2 68837  51.6308 164.5377 0007264  16.4817 343.6406 15.49068051   900
